NORAD_CAT_ID,OBJECT_NAME,OBJECT_TYPE,EPOCH,MEAN_MOTION,ECCENTRICITY,INCLINATION,RA_OF_ASC_NODE,ARG_OF_PERICENTER,MEAN_ANOMALY,BSTAR,MEAN_MOTION_DOT,MEAN_MOTION_DDOT,TLE_LINE0,TLE_LINE1,TLE_LINE2,SEMIMAJOR_AXIS,PERIOD,APOGEE,PERIGEE,DECAYED
54797.0,STARLINK-5435,PAYLOAD,2023-12-29 09:35:44,15.08837883,0.0001879,53.2178,41.0954,106.0836,254.0364,3.2606e-05,2.31e-06,0.0,0 STARLINK-5435,1 54797U 22175AR  23363.39982050  .00000231  00000-0  32606-4 0  9999,2 54797  53.2178  41.0954 0001879 106.0836 254.0364 15.08837883 58954,6917.887,95.438,541.052,538.452,0.0
54797.0,STARLINK-5435,PAYLOAD,2023-12-30 07:51:08,15.08845992,0.0001792,53.2178,36.9324,99.6629,260.4566,0.00023346,3.43e-05,0.0,0 STARLINK-5435,1 54797U 22175AR  23364.32717718  .00003430  00000-0  23346-3 0  9994,2 54797  53.2178  36.9324 0001792  99.6629 260.4566 15.08845992 56930,6917.862,95.437,540.967,538.487,0.0
54797.0,STARLINK-5435,PAYLOAD,2023-12-31 01:20:23,15.08836134,0.0001641,53.2164,33.659,77.4199,282.6977,7.1743e-05,8.54e-06,0.0,0 STARLINK-5435,1 54797U 22175AR  23365.05582285  .00000854  00000-0  71743-4 0  9996,2 54797  53.2164  33.6590 0001641  77.4199 282.6977 15.08836134 57046,6917.892,95.438,540.892,538.622,0.0
54797.0,STARLINK-5435,PAYLOAD,2023-12-31 07:41:55,15.08833618,0.0001638,53.2169,32.4692,90.5991,269.5189,4.1245e-06,-2.22e-06,0.0,0 STARLINK-5435,1 54797U 22175AR  23365.32078415 -.00000222  00000-0  41245-5 0  9996,2 54797  53.2169  32.4692 0001638  90.5991 269.5189 15.08833618 59240,6917.9,95.438,540.898,538.632,0.0
54797.0,STARLINK-5435,PAYLOAD,2024-01-01 09:08:06,15.08841414,0.0001604,53.2176,27.7115,85.7046,274.4129,5.4828e-05,5.85e-06,0.0,0 STARLINK-5435,1 54797U 22175AR  24001.38062506  .00000585  00000-0  54828-4 0  9995,2 54797  53.2176  27.7115 0001604  85.7046 274.4129 15.08841414 57245,6917.876,95.437,540.851,538.631,0.0
54797.0,STARLINK-5435,PAYLOAD,2024-01-02 10:34:15,15.08848403,0.0001593,53.2177,22.9533,90.5903,269.5272,0.00022016,3.218e-05,0.0,0 STARLINK-5435,1 54797U 22175AR  24002.44045873  .00003218  00000-0  22016-3 0  9990,2 54797  53.2177  22.9533 0001593  90.5903 269.5272 15.08848403 57407,6917.855,95.437,540.822,538.618,0.0
54797.0,STARLINK-5435,PAYLOAD,2024-01-03 00:52:44,15.08838187,0.0001628,53.2172,20.2762,95.5835,264.5343,1.2869e-05,-8.3e-07,0.0,0 STARLINK-5435,1 54797U 22175AR  24003.03662660 -.00000083  00000-0  12869-4 0  9999,2 54797  53.2172  20.2762 0001628  95.5835 264.5343 15.08838187 57496,6917.886,95.438,540.877,538.625,0.0
54797.0,STARLINK-5435,PAYLOAD,2024-01-03 07:14:17,15.08838906,0.0001644,53.2171,19.0865,98.2948,261.823,4.2416e-05,3.87e-06,0.0,0 STARLINK-5435,1 54797U 22175AR  24003.30158667  .00000387  00000-0  42416-4 0  9993,2 54797  53.2171  19.0865 0001644  98.2948 261.8230 15.08838906 59696,6917.884,95.438,540.886,538.611,0.0
54797.0,STARLINK-5435,PAYLOAD,2024-01-04 03:54:17,15.08845501,0.000155,53.2179,15.2224,91.1462,268.9708,0.00014595,2.036e-05,0.0,0 STARLINK-5435,1 54797U 22175AR  24004.16270523  .00002036  00000-0  14595-3 0  9993,2 54797  53.2179  15.2224 0001550  91.1462 268.9708 15.08845501 57662,6917.864,95.437,540.801,538.656,0.0
54797.0,STARLINK-5435,PAYLOAD,2024-01-04 05:29:40,15.08846922,0.0001713,53.2181,14.9238,108.7032,251.4146,0.00016095,2.275e-05,0.0,0 STARLINK-5435,1 54797U 22175AR  24004.22894317  .00002275  00000-0  16095-3 0  9995,2 54797  53.2181  14.9238 0001713 108.7032 251.4146 15.08846922 59837,6917.859,95.437,540.909,538.539,0.0
54797.0,STARLINK-5435,PAYLOAD,2024-01-05 03:45:05,15.0883758,0.000164,53.2168,10.7611,99.9718,260.1459,8.5349e-05,1.07e-05,0.0,0 STARLINK-5435,1 54797U 22175AR  24005.15630915  .00001070  00000-0  85349-4 0  9991,2 54797  53.2168  10.7611 0001640  99.9718 260.1459 15.08837580 57812,6917.888,95.438,540.887,538.618,0.0
54797.0,STARLINK-5435,PAYLOAD,2024-01-05 06:55:51,15.08840074,0.0001623,53.2166,10.167,83.5005,276.6171,0.00011602,1.559e-05,0.0,0 STARLINK-5435,1 54797U 22175AR  24005.28878921  .00001559  00000-0  11602-3 0  9998,2 54797  53.2166  10.1670 0001623  83.5005 276.6171 15.08840074 59994,6917.88,95.438,540.868,538.622,0.0
54797.0,STARLINK-5435,PAYLOAD,2024-01-06 09:57:24,15.08848765,0.0001639,53.2171,5.1106,96.8682,263.2497,0.00015381,2.161e-05,0.0,0 STARLINK-5435,1 54797U 22175AR  24006.41486316  .00002161  00000-0  15381-3 0  9995,2 54797  53.2171   5.1106 0001639  96.8682 263.2497 15.08848765 58002,6917.854,95.437,540.852,538.585,0.0
54797.0,STARLINK-5435,PAYLOAD,2024-01-07 03:26:39,15.08835587,0.0001597,53.2168,1.8374,85.1473,274.9701,6.6935e-06,-1.82e-06,0.0,0 STARLINK-5435,1 54797U 22175AR  24007.14351026 -.00000182  00000-0  66935-5 0  9990,2 54797  53.2168   1.8374 0001597  85.1473 274.9701 15.08835587 58117,6917.894,95.438,540.864,538.654,0.0
54797.0,STARLINK-5435,PAYLOAD,2024-01-07 05:02:02,15.08836271,0.0001599,53.2169,1.5401,84.7307,275.3868,1.5844e-05,-3.6e-07,0.0,0 STARLINK-5435,1 54797U 22175AR  24007.20975023 -.00000036  00000-0  15844-4 0  9996,2 54797  53.2169   1.5401 0001599  84.7307 275.3868 15.08836271 60280,6917.892,95.438,540.863,538.651,0.0
54797.0,STARLINK-5435,PAYLOAD,2024-01-08 06:28:12,15.08844443,0.0001581,53.218,356.7824,84.1569,275.9603,6.2929e-05,7.14e-06,0.0,0 STARLINK-5435,1 54797U 22175AR  24008.26958928  .00000714  00000-0  62929-4 0  9996,2 54797  53.2180 356.7824 0001581  84.1569 275.9603 15.08844443 58282,6917.867,95.437,540.826,538.638,0.0
54797.0,STARLINK-5435,PAYLOAD,2024-01-09 07:54:22,15.08844719,0.0001588,53.2183,352.0271,85.0198,275.0976,0.00017017,2.422e-05,0.0,0 STARLINK-5435,1 54797U 22175AR  24009.32942889  .00002422  00000-0  17017-3 0  9998,2 54797  53.2183 352.0271 0001588  85.0198 275.0976 15.08844719 58443,6917.866,95.437,540.83,538.632,0.0
54797.0,STARLINK-5435,PAYLOAD,2024-01-10 07:45:09,15.08851817,0.000166,53.2178,347.5631,81.3466,278.7714,0.0001959,2.832e-05,0.0,0 STARLINK-5435,1 54797U 22175AR  24010.32302517  .00002832  00000-0  19590-3 0  9991,2 54797  53.2178 347.5631 0001660  81.3466 278.7714 15.08851817 60758,6917.844,95.437,540.858,538.561,0.0
54797.0,STARLINK-5435,PAYLOAD,2024-01-11 02:49:47,15.08841131,0.0001775,53.2178,343.9952,132.4829,227.6313,2.8624e-05,1.67e-06,0.0,0 STARLINK-5435,1 54797U 22175AR  24011.11790868  .00000167  00000-0  28624-4 0  9997,2 54797  53.2178 343.9952 0001775 132.4829 227.6313 15.08841131 58711,6917.877,95.437,540.97,538.514,0.0
54797.0,STARLINK-5435,PAYLOAD,2024-01-11 04:25:10,15.08843921,0.0001465,53.2172,343.701,92.4682,267.6478,9.6179e-05,1.243e-05,0.0,0 STARLINK-5435,1 54797U 22175AR  24011.18415081  .00001243  00000-0  96179-4 0  9991,2 54797  53.2172 343.7010 0001465  92.4682 267.6478 15.08843921 60882,6917.868,95.437,540.747,538.72,0.0
54797.0,STARLINK-5435,PAYLOAD,2024-01-12 04:15:57,15.08844419,0.000158,53.2173,339.2392,75.3522,284.7645,0.00012768,1.745e-05,0.0,0 STARLINK-5435,1 54797U 22175AR  24012.17775322  .00001745  00000-0  12768-3 0  9996,2 54797  53.2173 339.2392 0001580  75.3522 284.7645 15.08844419 58872,6917.867,95.437,540.825,538.639,0.0
54797.0,STARLINK-5435,PAYLOAD,2024-01-12 07:26:44,15.08846524,0.0001642,53.2173,338.641,71.7426,288.3745,0.00015161,2.126e-05,0.0,0 STARLINK-5435,1 54797U 22175AR  24012.31023221  .00002126  00000-0  15161-3 0  9990,2 54797  53.2173 338.6410 0001642  71.7426 288.3745 15.08846524 61052,6917.86,95.437,540.861,538.59,0.0
54797.0,STARLINK-5435,PAYLOAD,2024-01-13 04:06:45,15.08839484,0.0001558,53.2189,334.772,93.3554,266.7617,0.00012805,1.75e-05,0.0,0 STARLINK-5435,1 54797U 22175AR  24013.17135574  .00001750  00000-0  12805-3 0  9994,2 54797  53.2189 334.7720 0001558  93.3554 266.7617 15.08839484 59027,6917.882,95.438,540.825,538.669,0.0
54797.0,STARLINK-5435,PAYLOAD,2024-01-14 07:08:18,15.08843876,0.0001668,53.2185,329.7216,111.0122,249.1049,8.2498e-05,1.025e-05,0.0,0 STARLINK-5435,1 54797U 22175AR  24014.29743420  .00001025  00000-0  82498-4 0  9994,2 54797  53.2185 329.7216 0001668 111.0122 249.1049 15.08843876 59190,6917.869,95.437,540.887,538.58,0.0
54797.0,STARLINK-5435,PAYLOAD,2024-01-15 05:23:41,15.08852756,0.0001597,53.2194,325.5604,90.9524,269.1651,0.00024488,3.613e-05,0.0,0 STARLINK-5435,1 54797U 22175AR  24015.22479135  .00003613  00000-0  24488-3 0  9996,2 54797  53.2194 325.5604 0001597  90.9524 269.1651 15.08852756 61491,6917.841,95.437,540.811,538.602,0.0
54797.0,STARLINK-5435,PAYLOAD,2024-01-16 00:28:20,15.0883224,0.0001407,53.2181,321.9906,120.8738,239.2392,-6.3438e-05,-1.297e-05,0.0,0 STARLINK-5435,1 54797U 22175AR  24016.01968211 -.00001297  00000-0 -63438-4 0  9999,2 54797  53.2181 321.9906 0001407 120.8738 239.2392 15.08832240 59451,6917.904,95.438,540.742,538.796,0.0
54797.0,STARLINK-5435,PAYLOAD,2024-01-16 05:14:30,15.08837713,0.0002084,53.2184,321.1023,95.9255,264.1974,8.9137e-07,-2.74e-06,0.0,0 STARLINK-5435,1 54797U 22175AR  24016.21840287 -.00000274  00000-0  89137-6 0  9992,2 54797  53.2184 321.1023 0002084  95.9255 264.1974 15.08837713 61641,6917.887,95.438,541.194,538.311,0.0
54797.0,STARLINK-5435,PAYLOAD,2024-01-16 19:32:57,15.08842837,0.0001806,53.2185,318.4244,117.416,242.7016,0.00012111,1.64e-05,0.0,0 STARLINK-5435,1 54797U 22175AR  24016.81455926  .00001640  00000-0  12111-3 0  9992,2 54797  53.2185 318.4244 0001806 117.4160 242.7016 15.08842837 59573,6917.872,95.437,540.986,538.487,0.0
54797.0,STARLINK-5435,PAYLOAD,2024-01-17 03:29:52,15.0885297,0.0001712,53.2184,316.9383,106.7472,253.3708,9.8318e-05,1.278e-05,0.0,0 STARLINK-5435,1 54797U 22175AR  24017.14575125  .00001278  00000-0  98318-4 0  9994,2 54797  53.2184 316.9383 0001712 106.7472 253.3708 15.08852970 59623,6917.841,95.437,540.89,538.521,0.0
54797.0,STARLINK-5435,PAYLOAD,2024-01-18 03:20:40,15.08829259,0.0001058,53.2179,312.4797,104.0402,256.0708,-0.00019227,-3.345e-05,0.0,0 STARLINK-5435,1 54797U 22175AR  24018.13935865 -.00003345  00000-0 -19227-3 0  9995,2 54797  53.2179 312.4797 0001058 104.0402 256.0708 15.08829259 59774,6917.913,95.438,540.51,539.046,0.0
